[{"OBJECT_NAME":"SITRO-AIS 8 (ANOKHIN)","OBJECT_ID":"2023-091AD","EPOCH":"2026-03-09T23:44:40.058592","MEAN_MOTION":15.29359179,"ECCENTRICITY":0.0012509,"INCLINATION":97.5169,"RA_OF_ASC_NODE":133.2823,"ARG_OF_PERICENTER":92.0171,"MEAN_ANOMALY":268.2501,"EPHEMERIS_TYPE":0,"CLASSIFICATION_TYPE":"U","NORAD_CAT_ID":57193,"ELEMENT_SET_NO":999,"REV_AT_EPOCH":14927,"BSTAR":0.00064982524,"MEAN_MOTION_DOT":0.00018494,"MEAN_MOTION_DDOT":0},{"OBJECT_NAME":"STARLINK-32232","OBJECT_ID":"2024-144G","EPOCH":"2026-03-09T16:07:14.096352","MEAN_MOTION":15.30190379,"ECCENTRICITY":0.00012913,"INCLINATION":53.1603,"RA_OF_ASC_NODE":217.4141,"ARG_OF_PERICENTER":50.9111,"MEAN_ANOMALY":309.2004,"EPHEMERIS_TYPE":0,"CLASSIFICATION_TYPE":"U","NORAD_CAT_ID":60431,"ELEMENT_SET_NO":999,"REV_AT_EPOCH":8930,"BSTAR":1.8030419e-5,"MEAN_MOTION_DOT":1.75e-6,"MEAN_MOTION_DDOT":0}]
